CCSDS_OMM_VERS = 2.0
CREATION_DATE  = 
ORIGINATOR     = 

OBJECT_NAME    = SOYUZ-MS 28
OBJECT_ID      = 2025-275A
CENTER_NAME    = EARTH
REF_FRAME      = TEME
TIME_SYSTEM    = UTC
MEAN_ELEMENT_THEORY = SGP/SGP4

EPOCH          = 2025-12-27T04:18:31.505184
MEAN_MOTION    = 15.49864323
ECCENTRICITY   = .00032283
INCLINATION    = 51.6319
RA_OF_ASC_NODE = 70.9638
ARG_OF_PERICENTER = 308.9173
MEAN_ANOMALY   = 51.1527

EPHEMERIS_TYPE = 0
CLASSIFICATION_TYPE = U
NORAD_CAT_ID   = 66664
ELEMENT_SET_NO = 999
REV_AT_EPOCH   = 128
BSTAR          = .2516974E-3
MEAN_MOTION_DOT = .13867E-3
MEAN_MOTION_DDOT = 0

CCSDS_OMM_VERS = 2.0
CREATION_DATE  = 
ORIGINATOR     = 

OBJECT_NAME    = 1998-067XS
OBJECT_ID      = 1998-067XS
CENTER_NAME    = EARTH
REF_FRAME      = TEME
TIME_SYSTEM    = UTC
MEAN_ELEMENT_THEORY = SGP/SGP4

EPOCH          = 2025-12-26T15:31:52.021632
MEAN_MOTION    = 15.51325960
ECCENTRICITY   = .00026732
INCLINATION    = 51.6319
RA_OF_ASC_NODE = 73.4106
ARG_OF_PERICENTER = 274.6449
MEAN_ANOMALY   = 85.4236

EPHEMERIS_TYPE = 0
CLASSIFICATION_TYPE = U
NORAD_CAT_ID   = 66906
ELEMENT_SET_NO = 999
REV_AT_EPOCH   = 377
BSTAR          = .48784884E-3
MEAN_MOTION_DOT = .2883E-3
MEAN_MOTION_DDOT = 0

CCSDS_OMM_VERS = 2.0
CREATION_DATE  = 
ORIGINATOR     = 

OBJECT_NAME    = 1998-067XT
OBJECT_ID      = 1998-067XT
CENTER_NAME    = EARTH
REF_FRAME      = TEME
TIME_SYSTEM    = UTC
MEAN_ELEMENT_THEORY = SGP/SGP4

EPOCH          = 2025-12-27T05:04:13.175904
MEAN_MOTION    = 15.53277989
ECCENTRICITY   = .00038082
INCLINATION    = 51.6318
RA_OF_ASC_NODE = 70.4280
ARG_OF_PERICENTER = 315.2728
MEAN_ANOMALY   = 44.7954

EPHEMERIS_TYPE = 0
CLASSIFICATION_TYPE = U
NORAD_CAT_ID   = 66907
ELEMENT_SET_NO = 999
REV_AT_EPOCH   = 386
BSTAR          = .10975373E-2
MEAN_MOTION_DOT = .70608E-3
MEAN_MOTION_DDOT = 0

CCSDS_OMM_VERS = 2.0
CREATION_DATE  = 
ORIGINATOR     = 

OBJECT_NAME    = 1998-067XU
OBJECT_ID      = 1998-067XU
CENTER_NAME    = EARTH
REF_FRAME      = TEME
TIME_SYSTEM    = UTC
MEAN_ELEMENT_THEORY = SGP/SGP4

EPOCH          = 2025-12-27T05:02:32.565696
MEAN_MOTION    = 15.53313880
ECCENTRICITY   = .00039981
INCLINATION    = 51.6321
RA_OF_ASC_NODE = 70.4196
ARG_OF_PERICENTER = 312.4216
MEAN_ANOMALY   = 47.6435

EPHEMERIS_TYPE = 0
CLASSIFICATION_TYPE = U
NORAD_CAT_ID   = 66908
ELEMENT_SET_NO = 999
REV_AT_EPOCH   = 386
BSTAR          = .94152837E-3
MEAN_MOTION_DOT = .60507E-3
MEAN_MOTION_DDOT = 0

CCSDS_OMM_VERS = 2.0
CREATION_DATE  = 
ORIGINATOR     = 

OBJECT_NAME    = SILVERSAT
OBJECT_ID      = 1998-067XV
CENTER_NAME    = EARTH
REF_FRAME      = TEME
TIME_SYSTEM    = UTC
MEAN_ELEMENT_THEORY = SGP/SGP4

EPOCH          = 2025-12-27T04:59:41.464320
MEAN_MOTION    = 15.53631692
ECCENTRICITY   = .0003877
INCLINATION    = 51.6317
RA_OF_ASC_NODE = 70.4068
ARG_OF_PERICENTER = 318.5439
MEAN_ANOMALY   = 41.5257

EPHEMERIS_TYPE = 0
CLASSIFICATION_TYPE = U
NORAD_CAT_ID   = 66909
ELEMENT_SET_NO = 999
REV_AT_EPOCH   = 386
BSTAR          = .11884923E-2
MEAN_MOTION_DOT = .77561E-3
MEAN_MOTION_DDOT = 0

CCSDS_OMM_VERS = 2.0
CREATION_DATE  = 
ORIGINATOR     = 

OBJECT_NAME    = 1998-067XW
OBJECT_ID      = 1998-067XW
CENTER_NAME    = EARTH
REF_FRAME      = TEME
TIME_SYSTEM    = UTC
MEAN_ELEMENT_THEORY = SGP/SGP4

EPOCH          = 2025-12-27T04:57:29.407104
MEAN_MOTION    = 15.53518427
ECCENTRICITY   = .00037007
INCLINATION    = 51.6298
RA_OF_ASC_NODE = 70.3949
ARG_OF_PERICENTER = 289.8313
MEAN_ANOMALY   = 70.2278

EPHEMERIS_TYPE = 0
CLASSIFICATION_TYPE = U
NORAD_CAT_ID   = 66910
ELEMENT_SET_NO = 999
REV_AT_EPOCH   = 386
BSTAR          = .10805922E-2
MEAN_MOTION_DOT = .70117E-3
MEAN_MOTION_DDOT = 0

CCSDS_OMM_VERS = 2.0
CREATION_DATE  = 
ORIGINATOR     = 

OBJECT_NAME    = 1998-067XX
OBJECT_ID      = 1998-067XX
CENTER_NAME    = EARTH
REF_FRAME      = TEME
TIME_SYSTEM    = UTC
MEAN_ELEMENT_THEORY = SGP/SGP4

EPOCH          = 2025-12-27T04:50:55.382496
MEAN_MOTION    = 15.54101067
ECCENTRICITY   = .00034852
INCLINATION    = 51.6304
RA_OF_ASC_NODE = 70.3654
ARG_OF_PERICENTER = 298.8958
MEAN_ANOMALY   = 61.1682

EPHEMERIS_TYPE = 0
CLASSIFICATION_TYPE = U
NORAD_CAT_ID   = 66911
ELEMENT_SET_NO = 999
REV_AT_EPOCH   = 385
BSTAR          = .12899504E-2
MEAN_MOTION_DOT = .85765E-3
MEAN_MOTION_DDOT = 0

CCSDS_OMM_VERS = 2.0
CREATION_DATE  = 
ORIGINATOR     = 

OBJECT_NAME    = 1998-067XY
OBJECT_ID      = 1998-067XY
CENTER_NAME    = EARTH
REF_FRAME      = TEME
TIME_SYSTEM    = UTC
MEAN_ELEMENT_THEORY = SGP/SGP4

EPOCH          = 2025-12-27T05:12:20.650752
MEAN_MOTION    = 15.52574078
ECCENTRICITY   = .00038721
INCLINATION    = 51.6314
RA_OF_ASC_NODE = 70.4653
ARG_OF_PERICENTER = 305.7746
MEAN_ANOMALY   = 54.2884

EPHEMERIS_TYPE = 0
CLASSIFICATION_TYPE = U
NORAD_CAT_ID   = 66912
ELEMENT_SET_NO = 999
REV_AT_EPOCH   = 385
BSTAR          = .87690241E-3
MEAN_MOTION_DOT = .54785E-3
MEAN_MOTION_DDOT = 0

