SOYUZ-MS 28             
1 66664U 25275A   25361.17953131  .00013867  00000+0  25170-3 0  9998
2 66664  51.6319  70.9638 0003228 308.9173  51.1527 15.49864323  1281
1998-067XS              
1 66906U 98067XS  25360.64712988  .00028830  00000+0  48785-3 0  9993
2 66906  51.6319  73.4106 0002673 274.6449  85.4236 15.51325960  3771
1998-067XT              
1 66907U 98067XT  25361.21126361  .00070608  00000+0  10975-2 0  9991
2 66907  51.6318  70.4280 0003808 315.2728  44.7954 15.53277989  3868
1998-067XU              
1 66908U 98067XU  25361.21009914  .00060507  00000+0  94153-3 0  9994
2 66908  51.6321  70.4196 0003998 312.4216  47.6435 15.53313880  3867
SILVERSAT               
1 66909U 98067XV  25361.20811880  .00077561  00000+0  11885-2 0  9995
2 66909  51.6317  70.4068 0003877 318.5439  41.5257 15.53631692  3860
1998-067XW              
1 66910U 98067XW  25361.20659036  .00070117  00000+0  10806-2 0  9992
2 66910  51.6298  70.3949 0003700 289.8313  70.2278 15.53518427  3865
1998-067XX              
1 66911U 98067XX  25361.20202989  .00085765  00000+0  12900-2 0  9996
2 66911  51.6304  70.3654 0003485 298.8958  61.1682 15.54101067  3858
1998-067XY              
1 66912U 98067XY  25361.21690568  .00054785  00000+0  87690-3 0  9999
2 66912  51.6314  70.4653 0003872 305.7746  54.2884 15.52574078  3854
